GPS BIIR-2  (PRN 13)    
1 24876U 97035A   22005.32661460  .00000042  00000+0  00000+0 0  9992
2 24876  55.4922 162.0373 0056009  54.4973 305.9873  2.00563066179381
GPS BIIR-4  (PRN 20)    
1 26360U 00025A   22005.21290650 -.00000044  00000+0  00000+0 0  9995
2 26360  53.9271  85.6180 0053345 179.4612 185.6044  2.00557960158707
GPS BIIR-8  (PRN 16)    
1 27663U 03005A   22005.53787896 -.00000024  00000+0  00000+0 0  9999
2 27663  55.6253 279.5302 0124471  38.9802 179.3249  2.00574117138744
GPS BIIR-9  (PRN 21)    
1 27704U 03010A   22005.48206519 -.00000084  00000+0  00000+0 0  9999
2 27704  54.9583  29.9099 0246635 300.6906  96.2582  2.00572473137546
GPS BIIR-10 (PRN 22)    
1 28129U 03058A   22005.01821335 -.00000041  00000+0  00000+0 0  9994
2 28129  53.7391  88.2518 0070411 309.3899  50.0235  2.00567018132211
GPS BIIR-11 (PRN 19)    
1 28190U 04009A   22005.04465392 -.00000081  00000+0  00000+0 0  9993
2 28190  56.0952 340.4848 0086955 114.7766 268.0957  2.00563669130373
GPS BIIR-13 (PRN 02)    
1 28474U 04045A   22005.21507804 -.00000082  00000+0  00000+0 0  9993
2 28474  55.2885  29.9991 0208501 276.2127 137.5751  2.00564370125860
GPS BIIRM-1 (PRN 17)    
1 28874U 05038A   22005.28487801 -.00000079  00000+0  00000+0 0  9997
2 28874  56.1684 337.9016 0139601 273.1802 305.1884  2.00556969119263
GPS BIIRM-2 (PRN 31)    
1 29486U 06042A   22005.47880090  .00000048  00000+0  00000+0 0  9996
2 29486  54.7362 215.7565 0103770  19.4903 256.0775  2.00563755111821
GPS BIIRM-3 (PRN 12)    
1 29601U 06052A   22005.04649515 -.00000017  00000+0  00000+0 0  9991
2 29601  55.6274 278.4815 0083258  70.2078 290.7433  2.00569109110837
GPS BIIRM-4 (PRN 15)    
1 32260U 07047A   22005.35124487  .00000025  00000+0  00000+0 0  9999
2 32260  53.2748 147.3033 0137380  60.7874 300.5355  2.00557237104242
GPS BIIRM-5 (PRN 29)    
1 32384U 07062A   22005.39942858 -.00000080  00000+0  00000+0 0  9999
2 32384  56.2822 338.6374 0015872 137.6714  28.7489  2.00552867102942
GPS BIIRM-6 (PRN 07)    
1 32711U 08012A   22004.77198395  .00000054  00000+0  00000+0 0  9999
2 32711  54.4930 214.7575 0155588 228.9254 129.7749  2.00559330101172
GPS BIIRM-8 (PRN 05)    
1 35752U 09043A   22005.39625976 -.00000036  00000+0  00000+0 0  9992
2 35752  54.9483  92.1002 0057045  57.0142  51.3006  2.00567008 90799
GPS BIIF-1  (PRN 25)    
1 36585U 10022A   22005.41410025 -.00000016  00000+0  00000+0 0  9994
2 36585  54.9062 274.0993 0101255  54.8223 183.5326  2.00556853 85024
GPS BIIF-2  (PRN 01)    
1 37753U 11036A   22005.40427990 -.00000079  00000+0  00000+0 0  9995
2 37753  56.5279  35.0568 0110306  49.7362 265.4374  2.00564283 76701
GPS BIIF-3  (PRN 24)    
1 38833U 12053A   22005.44996979  .00000049  00000+0  00000+0 0  9993
2 38833  53.5458 210.0295 0120799  44.9384 316.0763  2.00559988 66875
GPS BIIF-4  (PRN 27)    
1 39166U 13023A   22005.31084644 -.00000078  00000+0  00000+0 0  9997
2 39166  55.8025 334.3373 0098445  34.8983 325.7347  2.00566720 63315
GPS BIIF-5  (PRN 30)    
1 39533U 14008A   22005.30787531  .00000048  00000+0  00000+0 0  9999
2 39533  53.6433 215.5248 0054809 204.4241 155.3679  2.00572001 57116
GPS BIIF-6  (PRN 06)    
1 39741U 14026A   22005.08776514 -.00000077  00000+0  00000+0 0  9997
2 39741  56.4927  34.5955 0027925 299.6068  60.1668  2.00567408 55969
GPS BIIF-7  (PRN 09)    
1 40105U 14045A   22005.18082116  .00000032  00000+0  00000+0 0  9993
2 40105  54.6605 153.3236 0021328 107.9647 252.2270  2.00566591 53508
GPS BIIF-8  (PRN 03)    
1 40294U 14068A   22005.05334745 -.00000032  00000+0  00000+0 0  9992
2 40294  55.6935  94.3969 0036611  54.3612 306.0052  2.00559976 52637
GPS BIIF-9  (PRN 26)    
1 40534U 15013A   22005.18557181 -.00000012  00000+0  00000+0 0  9993
2 40534  53.8094 271.4597 0066522  17.7274 342.5695  2.00562411 49256
GPS BIIF-10 (PRN 08)    
1 40730U 15033A   22004.84898807 -.00000078  00000+0  00000+0 0  9990
2 40730  55.3054 333.2622 0070612   2.4421 357.5832  2.00560423 47419
GPS BIIF-11 (PRN 10)    
1 41019U 15062A   22005.39776163 -.00000032  00000+0  00000+0 0  9994
2 41019  55.6843  94.2227 0075342 215.7677 143.7530  2.00562959 45268
GPS BIIF-12 (PRN 32)    
1 41328U 16007A   22005.49299435  .00000035  00000+0  00000+0 0  9992
2 41328  54.8825 153.9425 0055434 225.4298 134.0777  2.00553184 43277
GPS BIII-1  (PRN 04)    
1 43873U 18109A   22005.47571939  .00000038  00000+0  00000+0 0  9997
2 43873  55.0632 156.3267 0016594 189.4981  53.0277  2.00564335 22504
GPS BIII-2  (PRN 18)    
1 44506U 19056A   22005.39595500 -.00000080  00000+0  00000+0 0  9992
2 44506  55.5986  35.5393 0021024 183.9086 263.4060  2.00568751 17509
GPS BIII-3  (PRN 23)    
1 45854U 20041A   22005.51474184 -.00000034  00000+0  00000+0 0  9992
2 45854  55.4008  92.8055 0019158 172.7858 300.8623  2.00560806 11473
GPS BIII-4  (PRN 14)    
1 46826U 20078A   22005.52169491 -.00000021  00000+0  00000+0 0  9991
2 46826  54.6770 276.7058 0012846 185.3062 264.4826  2.00566677  8940
